stationID,name,address,latitude,longitude,bonus,status,contract_name,bike_stands,available_bike_stands,available_bikes,last_update
72,ULB SOLBOSCH / VUB  SOLBOSCH(FERM?E-TRAVAUX),FERM?E-TRAVAUX STIB - ULB SOLBOSCH / VUB SOLBOSCH - AV. F.ROOSEVELT/F.ROOSEVELTLAAN 19,50.812489,4.379203,TRUE,CLOSED,Bruxelles-Capitale,27,2,0,2018-02-15T21:39:44+00:00
327,SIBELGA,SIBELGA - QUAI DES USINES / WERKHUIZENKAAI 16,50.874082,4.362205,FALSE,OPEN,Bruxelles-Capitale,20,12,6,2018-03-03T03:12:15+00:00
256,VAN OVERBEKE,VAN OVERBEKE / AV VAN OVERBEKE / VAN OVERBEKELAAN,50.874767,4.308977,FALSE,OPEN,Bruxelles-Capitale,24,6,18,2018-03-03T17:31:14+00:00
97,KARREVELD,KARREVELD - CHAUSSEE DE GAND/ GENTSESTEENWEG 1-3,50.858058,4.318689,FALSE,OPEN,Bruxelles-Capitale,25,14,11,2018-03-03T17:31:33+00:00
193,GARE DE L'OUEST,"GARE DE L'OUEST - CHEE DE NINOVE 207,209 / NINOOFSESTEENWEG 207,209",50.848866,4.320628,FALSE,OPEN,Bruxelles-Capitale,30,27,3,2018-03-03T17:30:51+00:00
146,LEOPOLD III/LEOPOLD III,LEOPOLD III -  BOULEVARD LEOPOLD III / LEOPOLD III-LAAN,50.859243,4.401022,FALSE,OPEN,Bruxelles-Capitale,25,13,12,2018-03-03T17:31:28+00:00
174,MENNEKENS/MENNEKENS,MENNEKENS - AVENUE BRIGADE PIRON (FACE AUX 80 - 82 - 84)/ BRIGADE PIRONLAAN (TEGENOVER 80 - 82 - 84),50.853947,4.31635,FALSE,OPEN,Bruxelles-Capitale,22,6,16,2018-03-03T17:31:26+00:00
52,SAINCTELETTE,SAINCTELETTE - PLACE SAINCTELETTE/SAINCTELETTEPLEIN,50.859212,4.34551,FALSE,OPEN,Bruxelles-Capitale,25,4,21,2018-03-03T17:30:32+00:00
261,CONSCIENCE,CONSCIENCE - AVENUE HENRI CONSCIENCE / HENRI CONSCIENCELAAN 83,50.86879,4.399587,FALSE,OPEN,Bruxelles-Capitale,20,5,15,2018-03-03T17:32:23+00:00
184,PHILIPPE BAUCQ,PHILIPPE BAUCQ - RUE PHILIPPE BAUCQ / PHILIPPE BAUCQSTRAAT 32 - 38,50.831592,4.385786,FALSE,OPEN,Bruxelles-Capitale,25,14,11,2018-03-03T17:32:13+00:00
36,PLACE ST JEAN / SINT-JANSPLEIN,PLACE ST JEAN/SINT-JANSPLEIN - RUE DU LOMBARD/LOMBARDSTRAAT 42,50.845124,4.351486,FALSE,OPEN,Bruxelles-Capitale,35,0,35,2018-03-03T17:32:29+00:00
305,PETER BENOIT,PETER BENOIT - PLACE PETER BENOIT PLAATS 2-4,50.895592,4.387965,FALSE,OPEN,Bruxelles-Capitale,25,20,5,2018-03-03T17:32:34+00:00
113,ABBAYE DE LA CAMBRE / ABDIJ TER KAMEREN,ABBAYE DE LA CAMBRE/ABDIJ TER KAMEREN - AVENUE EMILE DURAY (FACE AU N?? 2) /EMILE DURAYLAAN (TEGENOVER N?? 2),50.820042,4.374785,FALSE,OPEN,Bruxelles-Capitale,20,13,7,2018-03-03T17:32:47+00:00
228,ALTITUDE CENT / HOOGTE HONDERD,ALTITUDE CENT / HOOGTE HONDERD - PLACE DE L'ALTITUDE 100 (FACE 31) / HOOGTE HONDERDPLEIN (TEGENOVER 31),50.816525,4.336212,TRUE,OPEN,Bruxelles-Capitale,25,19,6,2018-03-03T17:33:13+00:00
207,BIESTEBROECK / BIESTEBROEK,BIESTEBROECK / BIESTEBROEK - CHEE DE MONS (FACE AU 518-526) / BERGENSESTEENWEG (TEGENOVER 518-526),50.833424,4.313378,FALSE,OPEN,Bruxelles-Capitale,25,16,7,2018-03-03T17:33:01+00:00
137,MAISON COMMUNALE DE SCHAERBEEK,MAISON COMMUNALE DE SCHAERBEEK / SCHAARBEEK GEMEENTEHUIS - RUE ROYALE SAINTE MARIE/KONINKLIJKE SINTE-MARIASTRAAT 241-243-245,50.86661,4.373102,FALSE,OPEN,Bruxelles-Capitale,25,10,15,2018-03-03T17:33:23+00:00
233,PARC DUDEN / DUDEN PARK,PARC DUDEN / DUDEN PARK - AV VICTOR ROUSSEAU FACE 132 / VICTOR ROUSSEAULAAN VOOR 132,50.813858,4.330992,TRUE,OPEN,Bruxelles-Capitale,20,3,17,2018-03-03T17:33:13+00:00
354,TRIOMPHE / TRIOMF,TRIOMPHE - BD DU TRIOMPHE / TRIOMFLAAN  105 - 107,50.821557,4.402288,TRUE,OPEN,Bruxelles-Capitale,20,7,13,2018-03-03T17:32:54+00:00
167,CHARLES V/KAREL V,CHARLES V/KAREL V - AVENUE CHARLES QUINT/KEIZER KARELLAAN 129-131,50.869032,4.309731,FALSE,OPEN,Bruxelles-Capitale,22,10,12,2018-03-03T17:33:29+00:00
203,DEMOSTHENE (FERM?E),FERM?E - D?PLACEMENT STATION - DEMOSTHENE - BD PRINCE DE LIEGE / PRINS VAN LUIKLAAN 216-218-220,50.84045,4.305055,FALSE,CLOSED,Bruxelles-Capitale,15,0,4,2018-03-03T17:33:20+00:00
2,ELOY/ELOY,ELOY - RUE ELOY / ELOYSTRAAT,50.836151,4.326019,FALSE,OPEN,Bruxelles-Capitale,25,7,17,2018-03-03T17:32:51+00:00
88,WOESTE,WOESTE - AVENUE NOTRE DAME DE LOURDES / ONZE-LIEVE-VROUW VAN LOURDESLAAN,50.873354,4.334311,FALSE,OPEN,Bruxelles-Capitale,25,10,15,2018-03-03T17:34:07+00:00
39,HOTEL DES MONNAIES / MUNTHOTEL,HOTEL DES MONNAIES/MUNTHOTEL - BLD DE WATERLOO- WATERLOOLAAN 93/94/95/96/98,50.834237,4.350732,FALSE,OPEN,Bruxelles-Capitale,25,14,11,2018-03-03T17:38:31+00:00
235,FOREST NATIONAL / VORST NATIONAAL,FOREST NATIONAL / VORST NATIONAAL - AV VICTOR ROUSSEAU DVT FOREST NATIONAL / VICTOR ROUSSEAU LAAN VOOR VORST NATIONAAL,50.810085,4.324864,FALSE,OPEN,Bruxelles-Capitale,25,1,24,2018-03-03T17:37:45+00:00
95,PLACE BOCKSTAEL/BOCKSTAELPLAATS,PLACE BOCKSTAEL/BOCKSTAELPLAATS - BLD EMILE BOCKSTAEL/EMILE BOCKSTAELLAAN 254,50.87808,4.34793,FALSE,OPEN,Bruxelles-Capitale,25,13,12,2018-03-03T17:37:45+00:00
281,ATOMIUM,ATOMIUM - BOULEVARD DU CENTENAIRE / EEUWFEESTLAAN,50.895485,4.341311,FALSE,OPEN,Bruxelles-Capitale,25,6,19,2018-03-03T17:38:14+00:00
103,ERNEST SOLVAY,ERNEST SOLVAY - RUE DE L'ARBRE BENIT/GEWIJDE BOOMSTRAAT 2-4-6,50.834792,4.364115,TRUE,OPEN,Bruxelles-Capitale,25,10,15,2018-03-03T17:38:31+00:00
226,UNION/UNIE,UNION/UNIE - BD DE LA DEUXIEME ARMEE BRITANNIQUE / BRITS TWEEDELEGERLAAN 8 - 2,50.819939,4.325277,FALSE,OPEN,Bruxelles-Capitale,25,8,16,2018-03-03T17:37:40+00:00
297,TEN REUKEN,TEN REUKEN - BD DU SOUVERAIN FACE 76,50.804455,4.426369,FALSE,OPEN,Bruxelles-Capitale,25,12,13,2018-03-03T17:37:21+00:00
240,VANDERKINDERE,VANDERKINDERE - AVENUE ALBERT/ALBERTLAAN N?? 272,50.81418,4.347721,TRUE,OPEN,Bruxelles-Capitale,23,19,4,2018-03-03T17:36:53+00:00
259,NOVILLE,NOVILLE - SQ NOVILLE,50.859608,4.33409,FALSE,OPEN,Bruxelles-Capitale,20,6,13,2018-03-03T17:37:17+00:00
243,RONDPOINT CHURCHILL/ROTONDE CHURCHILL,RONDPOINT CHURCHILL/ROTONDE CHURCHILL - AV MESSIDOR FACE 338/MESSIDORLAAN TEGENOVER 338,50.811752,4.353424,TRUE,OPEN,Bruxelles-Capitale,25,4,21,2018-03-03T17:37:08+00:00
48,CONGRES,CONGRES - RUE ROYALE/KONINGSSTRAAT 144-146-148,50.849358,4.363589,TRUE,OPEN,Bruxelles-Capitale,23,8,15,2018-03-03T17:36:40+00:00
258,LIBERTE,"LIBERTE - AV DE LA LIBERTE, 44 / VRIJHEIDSLAAN,44",50.862152,4.323353,TRUE,OPEN,Bruxelles-Capitale,16,8,8,2018-03-03T17:36:19+00:00
350,VERHEYLEWEGHEN,VERHEYLEWEGHEN - PLACE VERHEYLEWEGHEN DVT LES N??32-34,50.848184,4.425621,FALSE,OPEN,Bruxelles-Capitale,22,5,17,2018-03-03T17:36:02+00:00
69,LESBROUSSART,LESBROUSSART - AVENUE LOUISE/LOUIZALAAN 192,50.827577,4.363797,TRUE,OPEN,Bruxelles-Capitale,29,13,16,2018-03-03T17:35:42+00:00
143,RTL,RTL  - CHAUSSEE DE LOUVAIN (DVT 770)/ LEUVENSE STEENWEG (N?? 770),50.857218,4.407879,FALSE,OPEN,Bruxelles-Capitale,25,8,17,2018-03-03T17:34:59+00:00
298,HALL DES SPORTS,HALL DES SPORTS - AV DES 9 PROVINCES / 9 PROVINCIES LAAN / RUE VANDERVEKEN/STRAAT,50.877037,4.300847,FALSE,OPEN,Bruxelles-Capitale,25,15,10,2018-03-03T17:34:54+00:00
141,GARE DU NORD/NOORDSTATION,GARE DU NORD/NOORDSTATION - PLACE SIMON BOLIVAR/ SIMON BOLIVARLAAN,50.860652,4.358116,FALSE,OPEN,Bruxelles-Capitale,42,8,34,2018-03-03T17:35:30+00:00
253,REINE FABIOLA / KONINGIN FABIOLA,REINE FABIOLA / KONINGIN FABIOLA - AV PIETER GODEFROY / PIETER GODEFROYLAAN,50.872475,4.314266,FALSE,OPEN,Bruxelles-Capitale,25,12,13,2018-03-03T17:34:50+00:00
275,VERSAILLES,VERSAILLES - AVENUE DE VERSAILLES / VERSAILLESLAAN 125,50.896278,4.372427,FALSE,OPEN,Bruxelles-Capitale,20,12,8,2018-03-03T17:35:25+00:00
16,LOUISE / LOUIZA,LOUISE/LOUIZA - PLACE LOUISE/LOUIZAPLEIN 53,50.835968,4.355508,TRUE,OPEN,Bruxelles-Capitale,40,24,15,2018-03-03T17:34:36+00:00
166,GC ESSEGEM,GC ESSEGEM - RUE AMELIE GOMAND 51- 45,50.876205,4.337137,FALSE,OPEN,Bruxelles-Capitale,25,6,19,2018-03-03T17:35:30+00:00
245,HAMOIR,CHEE DE WATERLOO/WATERLOOSESTEENWEG 1050,50.798988,4.375581,FALSE,OPEN,Bruxelles-Capitale,25,8,17,2018-03-03T17:34:13+00:00
310,SAINT-VINCENT / SINT-VINCENTIUS,SAINT VINCENT / SINT-VINCENTIUS - RUE STROOBANTS/STROOBANTSSTRAAT,50.88058,4.401674,FALSE,OPEN,Bruxelles-Capitale,20,7,13,2018-03-03T17:33:50+00:00
320,UZ BRUSSEL,UZ BRUSSEL - AVENUE DE L'ARBRE BALLON / DIKKE-BEUKLAAN,50.887001,4.310701,FALSE,OPEN,Bruxelles-Capitale,20,9,11,2018-03-03T17:34:19+00:00
76,PLACE VAN MEENEN/VAN MEENENPLEIN,PLACE VAN MEENEN/VAN MEENENPLEIN - AV PAUL DEJAER (FACE 35 - 39) / PAUL DEJAERLAAN (TEGENOVER 35 - 39),50.825749,4.345165,FALSE,OPEN,Bruxelles-Capitale,25,12,13,2018-03-03T17:38:38+00:00
85,ETANGS NOIRS/ZWARTE VIJVERS,ETANGS NOIRS /ZWARTE VIJVERS - CHEE DE GAND/STEENWEG OP GENT,50.85726552,4.332368379,FALSE,OPEN,Bruxelles-Capitale,25,11,14,2018-03-03T17:38:47+00:00
277,VAN PRAET,VAN PRAET - AVENUE VAN PRAET / VAN PRAETLAAN,50.881588,4.373817,FALSE,OPEN,Bruxelles-Capitale,21,13,8,2018-03-03T17:39:20+00:00
96,HOTEL PRESIDENT/PRESIDENT HOTEL,HOTEL PRESIDENT/PRESIDENT HOTEL - BOULEVARD DU ROI ALBERT II/KONING ALBERT-II LAAN,50.863875,4.358708,FALSE,OPEN,Bruxelles-Capitale,25,16,9,2018-03-03T17:39:21+00:00
84,STE ANNE/SINT-ANNA,STE ANNE/SINT-ANNA  -  RUE DE L'EGLISE STE ANNE/SINT-ANNAKERKSTRAAT 116,50.85896,4.330107,FALSE,OPEN,Bruxelles-Capitale,20,15,5,2018-03-03T17:39:25+00:00
169,GEORGES EEKHOUD,GEORGES EEKHOUD - AVENUE GEORGES EEKHOUD/GEORGES EEKHOUDLAAN 56,50.877125,4.387515,FALSE,OPEN,Bruxelles-Capitale,25,10,15,2018-03-03T17:39:00+00:00
47,LES QUAIS / KAAIEN,LES QUAIS/KAAIEN - QUAI A LA CHAUX/KALKKAAI 1-2,50.854714,4.347151,FALSE,OPEN,Bruxelles-Capitale,20,9,11,2018-03-03T17:40:24+00:00
333,TRACTEBEL,TRACTEBEL - AV MARCEL THIRY FACE AU N??93,50.856582,4.430988,FALSE,OPEN,Bruxelles-Capitale,25,10,15,2018-03-03T17:40:32+00:00
224,ROCHEFORT,ROCHEFORT - AV. WIELEMANS CEUPPENS LAAN 184-190,50.824352,4.334465,FALSE,OPEN,Bruxelles-Capitale,25,16,8,2018-03-03T17:39:53+00:00
60,ST-LAZARE/ST LAZARUS,ST-LAZARE/SINT-LAZARUS   -   BLD SAINT-LAZARE/SINT-LAZARUSLAAN 4 -10,50.856714,4.362106,FALSE,OPEN,Bruxelles-Capitale,25,16,9,2018-03-03T17:40:19+00:00
26,VAN LINT,VAN LINT - RUE VAN LINT/ VAN LINTSTRAAT 6 - 8,50.839413,4.328914,FALSE,OPEN,Bruxelles-Capitale,23,20,2,2018-03-03T17:40:36+00:00
30,LAEKEN / LAKEN,LAEKEN/LAKEN - RUE DE LAEKEN (ENTRE N?? 119 ET 109) / LAKENSESTRAAT (TUSSEN N?? 119 EN 109),50.853666,4.351771,FALSE,OPEN,Bruxelles-Capitale,25,10,14,2018-03-03T17:39:51+00:00
62,CORTENBERGH / KORTENBERG,CORTENBERGH / KORTENBERG - AVENUE D'AUDERGHEM 1 - 9 /OUDERGHEMLAAN 1-9,50.84177,4.38418,FALSE,OPEN,Bruxelles-Capitale,40,11,9,2018-03-03T17:40:06+00:00
177,CHASSEURS ARDENNAIS/ARDENSE JAGERS,CHASSEURS ARDENNAIS/ARDENSE JAGERSPLEIN - RUE DU NOYER 81-87 /NOTELAARSSTRAAT 81-87,50.849409,4.389263,TRUE,OPEN,Bruxelles-Capitale,25,17,8,2018-03-03T17:39:56+00:00
326,ADEPS,ADEPS - CHEE DE WAVRE / WAVERSESTEENWEG 2057,50.809406,4.443777,FALSE,OPEN,Bruxelles-Capitale,22,9,13,2018-03-03T17:40:06+00:00
98,CIMETIERE/KERKHOF,CIMETIERE/KERKHOF - BLD METTEWIE/METTEWIELAAN 40 INTERSECTION CHAUSS?E DE GAND/GENTSESTEENWEEG,50.85904,4.312402,FALSE,OPEN,Bruxelles-Capitale,20,15,5,2018-03-03T17:39:43+00:00
21,DE BROUCKERE (FERM?E - TRAVAUX DE VOIRIE),FERM?E - TRAVAUX DE VOIRIE - DE BROUCKERE - PLACE DE BROUCKERE/DE BROUCKEREPLEIN,50.851919,4.352776,FALSE,CLOSED,Bruxelles-Capitale,38,0,0,2018-02-21T22:22:19+00:00
93,CLOVIS (FERM?E - TRAVAUX DE VOIRIE),FERM?E - TRAVAUX DE VOIRIE - CLOVIS - CHAUSSEE DE LOUVAIN - LEUVENSESTEENWEG 260-264,50.85062,4.381152,FALSE,CLOSED,Bruxelles-Capitale,25,0,0,2018-02-21T22:22:19+00:00
230,BERKENDAEL / BERKENDAAL,BERKENDAEL / BERKENDAAL - AVENUE ALBERT / ALBERTLAAN 134,50.818382,4.346061,FALSE,OPEN,Bruxelles-Capitale,24,20,4,2018-03-03T17:32:35+00:00
58,GARE DU NORD / NOORDSTATION,GARE DU NORD/NOORDSTATION - PLACE DU NORD / NOORDPLAATS,50.859181,4.35942,FALSE,OPEN,Bruxelles-Capitale,43,25,18,2018-03-03T17:31:38+00:00
199,HENRI REY (FERM?E),FERM?E - D?PLACEMENT STATIONHENRI REY - BD FELIX PAULSEN / FELIX PAULSENLAAN 3-5-7-9,50.843693,4.304986,TRUE,CLOSED,Bruxelles-Capitale,14,0,0,2018-03-03T17:32:02+00:00
89,ATHENEE DE JETTE/ATHENEUM VAN JETTE,ATHENEE DE JETTE/ATHENEUM VAN JETTE - AVENUE DE LEVIS MIREPOIX / DE LEVIS MIREPOIXLAAN 100,50.87119275,4.329924766,FALSE,OPEN,Bruxelles-Capitale,25,13,12,2018-03-03T17:31:50+00:00
237,PARVIS ST ANTOINE,PARVIS ST ANTOINE / ST ANTONIUS VOORPLEIN - RUE DE MERODE/MERODESTRAAT 290,50.827972,4.330705,FALSE,OPEN,Bruxelles-Capitale,25,15,10,2018-03-03T17:31:46+00:00
346,RECHERCHE,RECHERCHE - ROUTE DE LENNIK N??788,50.81591,4.2737,FALSE,OPEN,Bruxelles-Capitale,20,6,14,2018-03-03T17:32:26+00:00
99,JUBILE,JUBILE - BOULEVARD DU JUBILE/ JUBELFEESTLAAN 79,50.864992,4.338431,TRUE,OPEN,Bruxelles-Capitale,25,16,9,2018-03-03T17:31:38+00:00
329,ROODEBEEK (FERM?E-TRAVAUX DE VOIRIE),FERM?E-TRAVAUX DE VOIRIE - AV PAUL HYMANS FACE ? L'ARR?T METRO ROODEBEEK,50.847617,4.436084,FALSE,CLOSED,Bruxelles-Capitale,25,0,0,2018-03-03T17:32:10+00:00
191,ARTAN,ARTAN - RUE CLAYS,50.853973,4.38374,FALSE,OPEN,Bruxelles-Capitale,24,11,13,2018-03-03T17:32:32+00:00
5,BOURSE / BEURS,BOURSE / BEURS - RUE PAUL DEVAUX/PAUL DEVAUXSTRAAT,50.848893,4.349396,FALSE,OPEN,Bruxelles-Capitale,44,14,30,2018-03-03T17:31:33+00:00
23,AGORA / AGORA,AGORA - PLACE AGORA/AGORAPLEIN 120,50.846331,4.355193,FALSE,OPEN,Bruxelles-Capitale,19,1,18,2018-03-03T17:30:55+00:00
107,DEFACQZ,DEFACQZ - RUE DEFACQZ/ DEFACQZSTRAAT 25-27-29,50.827652,4.359031,FALSE,OPEN,Bruxelles-Capitale,25,12,13,2018-03-03T17:31:11+00:00
22,JACQMAIN,JACQMAIN - BLD. D'ANVERS / ANTWERPSELAAN 4,50.855969,4.355657,FALSE,OPEN,Bruxelles-Capitale,23,10,13,2018-03-03T17:31:16+00:00
66,SCHUMAN,SCHUMAN - RUE DE LA LOI 170,50.843359,4.379946,TRUE,OPEN,Bruxelles-Capitale,40,1,39,2018-03-03T17:30:42+00:00
117,CIMETIERE D'IXELLES/BEGRAAFPLAATS VAN ELSENE,CIMETIERE D'IXELLES / BEGRAAFPLAATS VAN ELSENE - AVENUE DE LA COURONNE/KROONLAAN 449,50.816029,4.391006,TRUE,OPEN,Bruxelles-Capitale,34,33,0,2018-03-03T17:31:32+00:00
311,DELTA,DELTA - BD DES INVALIDES / INVALIDENLAAN,50.818456,4.40349,TRUE,OPEN,Bruxelles-Capitale,22,15,7,2018-03-03T17:31:28+00:00
344,BETHLEEM,BETHLEEM - PLACE BETHLEEM,50.830179,4.337958,FALSE,OPEN,Bruxelles-Capitale,20,13,7,2018-03-03T17:30:41+00:00
266,GARE BORDET STATION,GARE BORDET / BORDET STATION - CHAUSSEE D'HAECHT FACE 1147 / HAACHTSESTEENWEG VOOR 1147,50.877552,4.409136,FALSE,OPEN,Bruxelles-Capitale,21,12,9,2018-03-03T17:30:59+00:00
254,BASILIQUE / BASILIEK,BASILIQUE / BASILIEK - AV JACQUES SERMON / JACUES SERMONLAAN,50.867393,4.320344,FALSE,OPEN,Bruxelles-Capitale,22,7,15,2018-03-03T17:33:32+00:00
80,CERES,"CERES - AV. F. ROOSEVELT/F. ROOSEVELTLAAN, 14",50.814852,4.376794,TRUE,OPEN,Bruxelles-Capitale,25,4,20,2018-03-03T17:32:55+00:00
182,BOILEAU,BOILEAU - BOULEVARD SAINT MICHEL / SINT-MICHIELSLAAN,50.83168,4.404769,FALSE,OPEN,Bruxelles-Capitale,25,11,14,2018-03-03T17:33:35+00:00
134,PLACE DE BASTOGNE/BASTENAKEN,BASTOGNE/BASTENAKEN - PLACE DE BASTOGNE/BASTENAKENPLEIN,50.862652,4.316644,FALSE,OPEN,Bruxelles-Capitale,25,11,14,2018-03-03T17:33:01+00:00
34,FONTAINAS / FONTAINAS,FONTAINAS - BLD ANSPACH N??180 A 192/ANSPACHLAAN N??180 TOT 192,50.84563,4.346942,FALSE,OPEN,Bruxelles-Capitale,31,3,28,2018-03-03T17:35:20+00:00
246,GATTI DE GAMOND,GATTI DE GAMMOND - RUE DE STALLE PROLONGEE/STALLE STRAAT 160,50.796471,4.328415,FALSE,OPEN,Bruxelles-Capitale,20,4,16,2018-03-03T17:34:41+00:00
102,MUSEUM/MUSEUM,MUSEUM - CHAUSSEE DE WAVRE (FACE 229 - 233)  /  WAVERSESTEENWEG (TEGENOVER 229 - 233),50.83579,4.375782,FALSE,OPEN,Bruxelles-Capitale,25,14,11,2018-03-03T17:35:08+00:00
119,PAQUOT/PACQUOT,PAQUOT -  RUE JEAN PAQUOT (44 A 48) /JEAN PAQUOTSTRAAT (44 T.E.M 48),50.82559,4.379555,FALSE,OPEN,Bruxelles-Capitale,20,17,3,2018-03-03T17:34:54+00:00
318,CARDINAL MERCIER / KARDINAAL MERCIER,CARDINAL MERCIER / KARDINAAL MERCIER - PLACE CARDINAL MERCIER / KARDINAAL MERCIER PLEIN 6,50.880539,4.32823,FALSE,OPEN,Bruxelles-Capitale,26,18,8,2018-03-03T17:34:57+00:00
151,LOUVAIN 488-494/LEUVEN 488-494,LOUVAIN / LEUVEN - CHAUSSEE DE LOUVAIN - LEUVENSESTEENWEG  488-494,50.853518,4.392491,FALSE,OPEN,Bruxelles-Capitale,25,13,10,2018-03-03T17:35:17+00:00
362,GARE BERCHEM ST AGATHE/ST AGATA BERCHEM,GARE BERCHEM ST AGATHE/ST AGATA BERCHEM STATION - RUE BOIS DES ?LES/EILANDENHOUTSTRAAT 1-15,50.872501,4.290218,FALSE,OPEN,Bruxelles-Capitale,20,13,7,2018-03-03T17:35:25+00:00
255,SACRE-COEUR DE/HEILIGE HART VAN GANSHOREN,"SACRE-COEUR DE GANSHOREN / HEILIGE HART VAN GANSHOREN - AV CHARLESQUINT,9 / KEISERKARELLAAN,9",50.868011,4.313968,FALSE,OPEN,Bruxelles-Capitale,25,10,15,2018-03-03T17:35:11+00:00
219,VAN HELLEMONT,VAN HELLEMONT - RUE DE NEERPEDE 372-374 / NEERPEDESTRAAT 372-374 (FERMEE SUITE ACCIDENT),50.829491,4.286006,FALSE,OPEN,Bruxelles-Capitale,23,11,12,2018-03-03T17:35:15+00:00
79,LOI / WET,LOI/WET - RUE D'ARLON/STRAAT 120,50.84413,4.374871,FALSE,OPEN,Bruxelles-Capitale,22,5,17,2018-03-03T17:35:07+00:00
234,ST DENIS / ST DENIJS,ST DENIS / ST DENIJS - PLACE ST DENIS FACE 68 / ST DENIJSPLAATS VOOR 68,50.809799,4.317546,FALSE,OPEN,Bruxelles-Capitale,25,11,14,2018-03-03T17:34:11+00:00
29,BAUDOUIN / BOUDEWIJN,BAUDOUIN/BOUDEWIJN - RUE DE LAEKEN / LAKENSESTRAAT,50.856584,4.352877,FALSE,OPEN,Bruxelles-Capitale,25,16,9,2018-03-03T17:34:31+00:00
139,LIEDTS,LIEDTS - PLACE LIEDTS (FACE AU 38)/ LIEDTSPLEIN (TEGENOVER 38),50.863872,4.366741,FALSE,OPEN,Bruxelles-Capitale,25,7,17,2018-03-03T17:34:21+00:00
355,PARNASSE,PARNASSE - RUE DU TRONE N??66 (CLOS PARNASSE),50.837714,4.369117,FALSE,OPEN,Bruxelles-Capitale,22,1,21,2018-03-03T17:34:26+00:00
220,LUTHER KING,LUTHER KING - BD MAURICE CAREME 30 / MAURICE CAREMELAAN 30,50.825706,4.288377,FALSE,OPEN,Bruxelles-Capitale,25,10,15,2018-03-03T17:33:38+00:00
321,SACRE-C?UR DE/HEILIGE HART VAN JETTE,FERM?E - SACRE-C?UR DE JETTE/HEILIGE HART VAN JETTE - AVENUE DU SACREE C?UR FACE 71 A 79/HEILIGE HARTLAAN VOOR 71 TOT 79,50.884251,4.330287,FALSE,OPEN,Bruxelles-Capitale,19,7,12,2018-03-03T17:34:35+00:00
336,KRAAINEM,KRAAINEM - AV DE WEZEMBEEK 7A,50.848578,4.459038,FALSE,OPEN,Bruxelles-Capitale,17,11,6,2018-03-03T17:38:24+00:00
110,RODIN,RODIN - AVENUE DE LA COURONNE (DEVANT 145 D) / KROONLAAN (N?? 145 D),50.826992,4.382379,FALSE,OPEN,Bruxelles-Capitale,22,12,10,2018-03-03T17:37:49+00:00
197,DE SMET,DE SMET - PLACE HENRI DE SMET / HENRI DE SMETPLEIN,50.848255,4.314854,FALSE,OPEN,Bruxelles-Capitale,25,13,12,2018-03-03T17:38:12+00:00
225,PLACE ALBERT PLEIN,PLACE ALBERT/PLEIN - PLACE ALBERT / ALBERTPLEIN,50.821117,4.342008,TRUE,OPEN,Bruxelles-Capitale,25,20,4,2018-03-03T17:38:24+00:00
133,CH?TEAU/KASTEEL,CHATEAU-KASTEEL - AVENUE DU CH?TEAU/KASTEELLAAN,50.866795,4.3092224,FALSE,OPEN,Bruxelles-Capitale,24,9,15,2018-03-03T17:38:21+00:00
247,STALLE,STALLE - RUE DE STALLE PROLONGEE/VERLENGDE STALLESTRAAT,50.79586,4.32058,FALSE,OPEN,Bruxelles-Capitale,25,11,13,2018-03-03T17:38:27+00:00
308,TIVOLI,TIVOLI - RUE DE MOLENBEEK CROISEMENT RUE DE WAUTIER/ KRUISPUNT MOLENBEEKSTRAAT-DE WAUTIERSTRAAT,50.872265,4.352158,FALSE,OPEN,Bruxelles-Capitale,19,6,13,2018-03-03T17:37:44+00:00
147,EMILE MAX LYCEE/LYCEUM EMILE MAX,EMILE MAX LYCEE/LYCEUM EMILE MAX - CHAUSSEE D'HAECHT/ HAACHTSESTEENWEG 226 - 230,50.861874,4.372146,TRUE,OPEN,Bruxelles-Capitale,25,12,13,2018-03-03T17:37:02+00:00
19,PLACE MORICHAR/MORICHARPLEIN,PLACE MORICHAR / MORICHARPLEIN - RUE DES ETUDIANTS/ STUDENTENSTRAAT 32 - 34,50.827955,4.347791,TRUE,OPEN,Bruxelles-Capitale,20,8,12,2018-03-03T17:37:14+00:00
189,PLACE VAN MEYEL/VAN MEYELPLEIN,PLACE VAN MEYEL/VAN MEYELPLEIN,50.836924,4.389073,FALSE,OPEN,Bruxelles-Capitale,17,6,11,2018-03-03T17:37:16+00:00
86,MAISON COMMUNALE DE JETTE GEMEENTEHUIS,MAISON COMMUNALE DE JETTE / JETTE GEMEENTEHUIS - CHAUSSEE DE WEMMEL/WEMMELSESTEENWEG 102,50.876195,4.324477,FALSE,OPEN,Bruxelles-Capitale,25,22,3,2018-03-03T17:37:07+00:00
279,HOUBA BRUGMANN,HOUBA BRUGMANN - AVENUE HOUBA DE STROOPER / HOUBA DE STROOPERLAAN,50.890181,4.336962,FALSE,OPEN,Bruxelles-Capitale,25,14,11,2018-03-03T17:36:41+00:00
335,THIRY,THIRY - BD DE LA WOLUWE DVT 100,50.854231,4.444034,FALSE,OPEN,Bruxelles-Capitale,20,6,14,2018-03-03T17:37:12+00:00
317,GEYSKENS,GEYSKENS - AVENUE ISIDORE GEYSKENSLAAN FACE/TEGENOVER 108,50.819546,4.421198,FALSE,OPEN,Bruxelles-Capitale,20,6,14,2018-03-03T17:37:09+00:00
78,DUC PETIAUX,DUC PETIAUX - CHAUSSEE DE WATERLOO/ WATERLOOSESTEENWEG 376 - 370,50.823699,4.351623,FALSE,OPEN,Bruxelles-Capitale,25,22,3,2018-03-03T17:37:35+00:00
269,CICERON,CICERON - CHAUSSE DE LOUVAIN / LEUVENSESTEENWEG1166,50.860859,4.421375,FALSE,OPEN,Bruxelles-Capitale,25,11,13,2018-03-03T17:36:45+00:00
236,AISON COMMUNALE DE FOREST/VORST GEMEENTEHUIS,MAISON COMMUNALE DE FOREST / VORST GEMEENTEHUIS - RUE SAINT DENIS 4 / SINT DENIJSSTRAAT 4,50.812328,4.318885,FALSE,OPEN,Bruxelles-Capitale,25,3,22,2018-03-03T17:36:24+00:00
200,VETERANS COLONIAUX / KOLONIALE VETERANEN,VETERANS COLONIAUX / KOLONIALE VETERANEN - BD JULES GRAINDOR / JULES GRAINDORLAAN,50.843967,4.313537,TRUE,OPEN,Bruxelles-Capitale,25,15,10,2018-03-03T17:36:24+00:00
260,TRITON,TRITON - AVENUE DES ANCIENS COMBATTANTS - PISCINE / OUD-STRIJDERSLAAN - ZWEMBAD,50.86702,4.406995,FALSE,OPEN,Bruxelles-Capitale,25,9,16,2018-03-03T17:36:21+00:00
148,GARE MEISER/MEISER STATION,GARE MEISER / MEISER STATION - AVENUE ROGIER/ ROGIERLAAN 377 - 379,50.855629,4.394807,FALSE,OPEN,Bruxelles-Capitale,22,16,6,2018-03-03T17:35:43+00:00
9,ANNEESSENS,ANNEESSENS - BLD MAURICE LEMONNIER/MAURICE LEMONNIERLAAN 42-44-46,50.844045,4.345048,FALSE,OPEN,Bruxelles-Capitale,35,2,33,2018-03-03T17:35:46+00:00
116,ULB PLAINE,ULB PLAINE - BOULEVARD DE LA PLAINE  (ENTREE ULB) / PLEINLAAN (INGANG VUB),50.818253,4.395749,FALSE,OPEN,Bruxelles-Capitale,25,17,8,2018-03-03T17:36:31+00:00
138,HOUFFALIZE,HOUFFALIZE - PLACE DE HOUFFALIZE /HOUFFALIZEPLEIN 58,50.865218,4.377735,FALSE,OPEN,Bruxelles-Capitale,25,3,22,2018-03-03T17:36:06+00:00
55,BOTANIQUE/KRUIDTUIN,BOTANIQUE/KRUIDTUIN - AVENUE GALILEE/GALILEELAAN,50.853248,4.366188,TRUE,OPEN,Bruxelles-Capitale,25,12,13,2018-03-03T17:36:20+00:00
223,WIELS,WIELS - AV.WIELEMANS CEUPPENS/LAAN 7,50.824055,4.326376,FALSE,OPEN,Bruxelles-Capitale,25,15,10,2018-03-03T17:36:18+00:00
238,UNION SAINT-GILLOISE / SINT-GILLIS UNIE,UNION SAINT-GILLOISE / SINT-GILLIS UNIE - CH DE BRUXELLES 366-362 / BRUSSELSESTEENWEG 366-362,50.820278,4.330802,FALSE,OPEN,Bruxelles-Capitale,20,13,7,2018-03-03T17:36:34+00:00
282,CENTENAIRE / EEUWFEEST,CENTENAIRE / EEUWFEEST - BOULEVARD DU CENTENAIRE / EEUWFEESTLAAN,50.890522,4.345112,FALSE,OPEN,Bruxelles-Capitale,25,10,15,2018-03-03T17:35:48+00:00
216,ARISTIDE BRIAND,ARISTIDE BRIAND - CH DE MONS 718 a 720 / BERGENSESTEENWEG 718 tot 720,50.828873,4.303918,FALSE,OPEN,Bruxelles-Capitale,25,5,18,2018-03-03T17:36:20+00:00
33,MORT SUBITE,MORT SUBITE - RUE MONTAGNE AUX-HERBES-POTAGERES (FACE N?? 7)/WARMOESBERG (TEGENOVER N??7),50.848701,4.356055,FALSE,OPEN,Bruxelles-Capitale,25,0,25,2018-03-03T17:36:37+00:00
288,HOUZEAU,HOUZEAU - AVENUE HOUZEAU 10 / HOUZEAULAAN 10,50.802711,4.358842,FALSE,OPEN,Bruxelles-Capitale,20,11,9,2018-03-03T17:38:39+00:00
31,MUSEE DE LA BD / STRIPMUSEUM,MUSEE DE LA BD/STRIPMUSEUM - BOULEVARD PACHECO/PACHECOLAAN,50.850303,4.360706,FALSE,OPEN,Bruxelles-Capitale,25,18,7,2018-03-03T17:38:48+00:00
345,3 TILLEULS,3 TILLEULS - AV DES ORTOLANS 2,50.802675,4.412073,FALSE,OPEN,Bruxelles-Capitale,18,10,8,2018-03-03T17:39:18+00:00
28,CLEMENCEAU / CLEMENCEAU,CLEMENCEAU - CHEE DE MONS/ BERGENSE STEENWEG 159-161-163,50.842005,4.3305,FALSE,OPEN,Bruxelles-Capitale,27,16,11,2018-03-03T17:39:05+00:00
83,SIMONIS,SIMONIS / BD LEOPOLD II (DEVANT 282)/ LEOPOLD II-LAAN (N?? 282),50.86284,4.33126,FALSE,OPEN,Bruxelles-Capitale,32,27,5,2018-03-03T17:38:55+00:00
328,HEYDENBERG,HEYDENBERG - AV HEYDENBERG FACE 99-101,50.849988,4.417064,FALSE,OPEN,Bruxelles-Capitale,20,7,13,2018-03-03T17:39:25+00:00
73,VLEURGAT,VLEURGAT - AVENUE LOUISE/LOUIZALAAN 300,50.823898,4.367752,TRUE,OPEN,Bruxelles-Capitale,25,21,4,2018-03-03T17:39:08+00:00
291,DECROLY,DECROLY - RUE GATTI DE GAMMOND / GATTI DE GAMMOND STRAAT,50.804661,4.327886,FALSE,OPEN,Bruxelles-Capitale,19,14,4,2018-03-03T17:39:09+00:00
301,MARIE-JOSE,MARIE-JOSE - PLACE MARIE-JOSE FACE 6 / MARIE-JOSE PLAATS VOOR 6,50.806271,4.387673,FALSE,OPEN,Bruxelles-Capitale,20,9,11,2018-03-03T17:38:49+00:00
264,NOTRE DAME/ONZE LIEVE VROUW,NOTRE DAME / ONZE LIEVE VROUW - AV NOTRE DAME 53 A 61 / ONZE LIEVE VROUWLAAN 53 TOT 61,50.870983,4.397506,FALSE,OPEN,Bruxelles-Capitale,20,11,9,2018-03-03T17:40:32+00:00
188,OSSEGHEM,OSSEGHEM -  AVENUE MAHATMA GANDHI/ MAHATMA GANDHILAAN 10,50.857235,4.324354,FALSE,OPEN,Bruxelles-Capitale,24,11,13,2018-03-03T17:39:52+00:00
349,FONSNY,FONSNY - AVENUE FONSNY EN FACE DES DEBOUCHES DES RUES COENRAETS ET J. CLAES,50.833444,4.334857,FALSE,OPEN,Bruxelles-Capitale,20,3,17,2018-03-03T17:39:58+00:00
252,BEMPT,BEMPT - CH DE NEERSTALLE DEVANT 333-335-337 / NEERSTALLESESTEENWEG 333-335-337,50.802563,4.315701,FALSE,OPEN,Bruxelles-Capitale,25,6,19,2018-03-03T17:39:47+00:00
152,PLACE DAILLY/DAILLYPLEIN,PLACE DAILLY / DAILLYPLEIN - PLACE DAILLY / DAILLYPLEIN 24 - 25,50.852389,4.387373,TRUE,OPEN,Bruxelles-Capitale,25,22,3,2018-03-03T17:40:02+00:00
131,JARDIN MASSART,JARDIN MASSART - AV HERMANN DEBROUXLAAN,50.81329,4.434751,FALSE,OPEN,Bruxelles-Capitale,25,8,17,2018-03-03T17:40:30+00:00
213,LA ROUE / HET RAD (FERM?E POUR MAINTENANCE),FERM?E POUR MAINTENANCE - LA ROUE / HET RAD - CH DE MONS 1100-1106 / BERGENSESTEENWEG 1100-1106,50.821018,4.293865,FALSE,CLOSED,Bruxelles-Capitale,15,0,0,2018-03-03T17:40:29+00:00
358,MADOUX,MADOUX - AVENUE DE TERVUREN FACE 403,50.82708,4.444795,FALSE,OPEN,Bruxelles-Capitale,25,4,21,2018-03-03T17:40:34+00:00
122,GARE D'ETTERBEEK,GARE D'ETTERBEEK/STATION VAN ETTERBEEK - BOULEVARD GENERAL JACQUES/GENERAAL JACQUESLAAN,50.822207,4.389325,TRUE,OPEN,Bruxelles-Capitale,30,17,13,2018-03-03T17:30:40+00:00
90,BROUSTIN,BROUSTIN - AV DE JETTE/ JETSELAAN 73 - 81,50.867448,4.326807,FALSE,OPEN,Bruxelles-Capitale,17,12,5,2018-03-03T17:30:48+00:00
135,PARC LACROIX/LACROIX PARK,PARC LACROIX / LACROIX PARK - AV PRINCESSE ELISABETH/PRINSES ELISABETHLAAN,50.872744,4.376647,FALSE,OPEN,Bruxelles-Capitale,25,18,7,2018-03-03T17:31:10+00:00
24,ROGIER / ROGIER,ROGIER - BOULEVARD DU JARDIN BOTANIQUE/KRUIDTUINLAAN,50.855268,4.358717,FALSE,OPEN,Bruxelles-Capitale,36,8,28,2018-03-03T17:31:01+00:00
183,LA CHASSE/JACHT,LA CHASSE/JACHT - AVENUE DES CASERNES/ KAZERNENLAAN 4 - 6,50.829928,4.390357,FALSE,OPEN,Bruxelles-Capitale,25,6,19,2018-03-03T17:30:45+00:00
263,MAISON COMMUNALE D'EVERE/EVERE GEMEENTEHUIS,MAISON COMMUNALE D'EVERE/ EVERE GEMEENTEHUIS - SQUARE HOEDEMAEKERS / HOEDEMAEKERSESQUARE 7-8,50.872002,4.403286,FALSE,OPEN,Bruxelles-Capitale,19,8,11,2018-03-03T17:31:06+00:00
186,GENOT,GENOT - CHAUSSEE DE GAND DEVANT 1033,50.861783,4.302607,FALSE,OPEN,Bruxelles-Capitale,20,13,7,2018-03-03T17:32:10+00:00
299,SAINT-ADRIEN,SAINT-ADRIEN - AV DU PESAGE N??21,50.80941,4.386541,FALSE,OPEN,Bruxelles-Capitale,20,9,11,2018-03-03T17:32:00+00:00
27,SQUARE ALBERT I / ALBERT I SQUARE,SQUARE ALBERT I / ALBERT I-SQUARE 25 - 26 - 27,50.838733,4.32176,FALSE,OPEN,Bruxelles-Capitale,25,11,14,2018-03-03T17:31:47+00:00
273,TAMARIS,TAMARIS - BD METTEWIE LAAN VOOR/FACE 71,50.854824,4.306209,FALSE,OPEN,Bruxelles-Capitale,25,10,12,2018-03-03T17:31:58+00:00
330,VANDERVELDE,VANDERVELDE - AVENUE EMILE VANDERVELDE 90,50.847546,4.450015,FALSE,OPEN,Bruxelles-Capitale,25,12,13,2018-03-03T17:31:54+00:00
295,COIN DU BALAI,COIN DU BALAI - AV DE LA FORESTERIE,50.793682,4.418497,FALSE,OPEN,Bruxelles-Capitale,25,14,11,2018-03-03T17:31:38+00:00
121,ETANGS / VIJVERS,ETANGS / VIJVERS - RUE GUILLAUME STOCQ (FACE AU N?? 1-3-5)/ GUILLAUME STOCQSTRAAT (TEGENOVER N?? 1-3-5),50.823986,4.37379,FALSE,OPEN,Bruxelles-Capitale,25,17,8,2018-03-03T17:32:06+00:00
244,BOIS DE LA CAMBRE,BOIS DE LA CAMBRE - AV WINSTON CHURCHIL 254 / WINSTON CHURCHILLAAN 254,50.81218,4.368321,TRUE,OPEN,Bruxelles-Capitale,20,10,10,2018-03-03T17:31:43+00:00
211,METRO CERIA,METRO CERIA - CH DE MONS (FACE AU 1292 a 1284) / BERGENSESTEENWEG (TEGENOVER 1292 TOT 1284),50.816528,4.290832,FALSE,OPEN,Bruxelles-Capitale,25,9,16,2018-03-03T17:33:27+00:00
105,DE HENNIN,DE HENNIN -  CHAUSSEE D'IXELLES/ELSENSE STEENWEG 254 - 260,50.829631,4.3692,TRUE,OPEN,Bruxelles-Capitale,20,12,8,2018-03-03T17:33:32+00:00
109,CHATELAIN/KASTELEIN,CHATELAIN/KASTELEIN - RUE DE L'AQUEDUC /AQUADUCTSTRAAT 115-117-119,50.824048,4.359896,FALSE,OPEN,Bruxelles-Capitale,25,11,14,2018-03-03T17:33:09+00:00
68,JEAN REY,JEAN REY - PLACE JEAN REY/JEAN REYPLAATS,50.840282,4.380131,FALSE,OPEN,Bruxelles-Capitale,33,15,18,2018-03-03T17:30:26+00:00
278,STADE / STADIUM,STADE / STADIUM - AVENUE HOUBA DE STROOPER / HOUBA DE STROOPERLAAN,50.894005,4.331902,FALSE,OPEN,Bruxelles-Capitale,25,7,18,2018-03-03T17:34:35+00:00
218,DELACROIX,DELACROIX - RUE LEON DELACROIX 1 a 7 / LEON DELACROIXSTRAAT 1 tot 7,50.845928,4.323812,FALSE,OPEN,Bruxelles-Capitale,25,12,13,2018-03-03T17:34:26+00:00
145,COTEAUX/WIJNHEUVELEN,COTEAUX/WIJNHEUVELEN - AVENUE ROGIER / ROGIERLAAN 128,50.859096,4.379117,FALSE,OPEN,Bruxelles-Capitale,25,17,8,2018-03-03T17:33:56+00:00
172,AEROPOLIS,AEROPOLIS - CHAUSSEE D'HAECHT (FACE 586) / HAACHTSESTEENWEG (TEGENOVER 586),50.869764,4.388191,FALSE,OPEN,Bruxelles-Capitale,25,8,17,2018-03-03T17:34:18+00:00
251,PAOLA,PAOLA - RUE VICTOR ALLARD FACE 222 / VICTOR ALLARD STRAAT VOOR 222,50.800377,4.326985,FALSE,OPEN,Bruxelles-Capitale,20,10,10,2018-03-03T17:34:29+00:00
125,GEORGES BRUGMANN,GEORGES BRUGMANN - PLACE GEORGES BRUGMANN/GEORGES BRUGMANNPLEIN N?? 10 - 11,50.817392,4.354105,TRUE,OPEN,Bruxelles-Capitale,25,12,12,2018-03-03T17:34:33+00:00
180,JOURDAN,JOURDAN - RUE FROISSART (FACE 3 - 5) / FROISSARTSTRAAT (TEGENOVER 3 - 5),50.837726,4.381565,FALSE,OPEN,Bruxelles-Capitale,25,8,17,2018-03-03T17:34:32+00:00
339,MEUDON,MEUDON - SQUARE MEUDON,50.845365,4.41788,FALSE,OPEN,Bruxelles-Capitale,22,0,22,2018-03-03T17:36:44+00:00
8,ARTS-LOI / KUNST-WET,ARTS-LOI/KUNST-WET -  AVENUE DES ARTS/KUNSTLAAN 24,50.845683,4.368582,TRUE,OPEN,Bruxelles-Capitale,21,20,1,2018-03-03T17:36:37+00:00
356,CENTRE SPORTIF,CENTRE SPORTIF - AVENUE JULES DU JARDIN FACE AU N??45 (ROND POINT DU TIBET),50.829715,4.455151,FALSE,OPEN,Bruxelles-Capitale,16,7,8,2018-03-03T17:37:29+00:00
306,HEMBEEK,HEMBEEK - ANGLE AV DES CROIX DE FEU / VUURKRUISENLAAN 7-9,50.889603,4.373967,FALSE,OPEN,Bruxelles-Capitale,25,14,11,2018-03-03T17:38:17+00:00
294,WIENER,WIENER - PLACE WIENER 2 / WIENERPLAATS 2,50.798344,4.419014,FALSE,OPEN,Bruxelles-Capitale,25,6,18,2018-03-03T17:38:20+00:00
265,EVERE SHOPPING,EVERE SHOPPING - AV DES LOISIRS / VRIJETIJDSLAAN,50.867241,4.40287,FALSE,OPEN,Bruxelles-Capitale,25,7,18,2018-03-03T17:37:53+00:00
262,PLACE DE LA PAIX/VREDEPLAIN,PLACE DE LA PAIX / VREDEPLAIN - PLACE DE LA PAIX FACE 24 / VREDEPLEIN VOOR 24,50.87693,4.400722,FALSE,OPEN,Bruxelles-Capitale,20,8,12,2018-03-03T17:38:00+00:00
126,FABRY,FABRY - BOULEVARD DE LA WOLUWE / WOLUWELAAN 28,50.837288,4.43462,FALSE,OPEN,Bruxelles-Capitale,25,11,14,2018-03-03T17:38:00+00:00
61,MAELBEEK / MAALBEEK,MAELBEEK/MAALBEEK - CHAUSSEE D'ETTERBEEK/ETTERBEEKSESTEENWEG 15,50.843836,4.378002,FALSE,OPEN,Bruxelles-Capitale,35,14,19,2018-03-03T17:38:06+00:00
161,DEMOLDER,DEMOLDER - AVENUE EUGENE DEMOLDER / EUGENE DEMOLDERLAAN 68,50.872592,4.379886,FALSE,OPEN,Bruxelles-Capitale,25,17,8,2018-03-03T17:38:13+00:00
163,CHAZAL/CHAZAL,CHAZAL - AVENUE ERNEST CAMBIER (FACE 7)/ ERNEST CAMBIERLAAN (TEGENOVER 7),50.859112,4.39157,FALSE,OPEN,Bruxelles-Capitale,25,19,6,2018-03-03T17:38:02+00:00
11,SABLON / ZAVEL,SABLON/ZAVEL - RUE DE LA REGENCE/REGENTSCHAPSSTRAAT 20,50.8405,4.356878,TRUE,OPEN,Bruxelles-Capitale,17,6,11,2018-03-03T17:35:50+00:00
1,LEOPOLD II,LEOPOLD II - AVENUE DE TERVUREN FACE / TERVURENLAAN VOOR 218,50.836304,4.41505,TRUE,OPEN,Bruxelles-Capitale,20,11,9,2018-03-03T17:36:28+00:00
198,SCHEUT,SCHEUT - CHEE DE NINOVE (FACE 441) / NINOOFSESTEENWEG (TEGENOVER 441),50.847649,4.307714,FALSE,OPEN,Bruxelles-Capitale,25,4,21,2018-03-03T17:36:05+00:00
15,MONTGOMERY,MONTGOMERY - AVENUE DE TERVUREN / TERVURENLAAN 136-138,50.837036,4.406826,FALSE,OPEN,Bruxelles-Capitale,25,13,12,2018-03-03T17:36:03+00:00
40,PORTE DE HAL / HALLEPOORT,PORTE DE HAL/HALLEPOORT - BOULEVARD DU MIDI/ZUIDLAAN 142,50.833931,4.343155,FALSE,OPEN,Bruxelles-Capitale,25,12,13,2018-03-03T17:36:03+00:00
153,SQUARE ARMAND STEURS,SQUARE ARMAND STEURS/ARMAND STEURSSQUARE - AVENUE PAUL DESCHANEL (FACE N?? 267 - 269) / PAUL DESCHANELLAAN (TEGENOVER 267 - 269),50.854128,4.378002,FALSE,OPEN,Bruxelles-Capitale,25,15,10,2018-03-03T17:36:01+00:00
274,CORHAY,CORAY - CHEE DE GAND DEVANT 579-587 GENTSESTEENWEG VOOR 579-587,50.86002,4.307502,FALSE,OPEN,Bruxelles-Capitale,25,13,12,2018-03-03T17:35:00+00:00
38,JEU DE BALLE / VOSSENPLEIN,JEU DE BALLE/VOSSENPLEIN - RUE BLAES/BLAESSTRAAT 135-141,50.837912,4.347421,FALSE,OPEN,Bruxelles-Capitale,19,17,2,2018-03-03T17:35:26+00:00
124,CHARLES GRAUX,CHARLES GRAUX - CHAUSSEE DE WATERLOO (DEVANT N?? 585 - 587)/ WATERLOOSESTEENWEG (N?? 585 - 587),50.818283,4.363568,TRUE,OPEN,Bruxelles-Capitale,25,21,4,2018-03-03T17:35:28+00:00
150,MEISER/MEISER,MEISER - PLACE GENERAL MEISER (FACE 1 - 3) / GENERAAL MEISERPLEIN (TEGENOVER 1 - 3),50.854654,4.398451,TRUE,OPEN,Bruxelles-Capitale,25,19,6,2018-03-03T17:34:59+00:00
154,PLASKY/PLASKY,PLASKY - SQUARE EUGENE PLASKY (FACE 100) / EUGENE PLASKYSQUARE (TEGENOVER 100),50.851241,4.396386,TRUE,OPEN,Bruxelles-Capitale,25,12,13,2018-03-03T17:35:12+00:00
249,SAINT-JOB/SINT-JOB,SAINT-JOB/SINT JOB - PLACE SAINT JOB/SINT-JOB PLEIN,50.794186,4.366336,FALSE,OPEN,Bruxelles-Capitale,25,10,12,2018-03-03T17:35:28+00:00
20,PALAIS ROYAL / KONINKLIJK PALEIS,PALAIS ROYAL/KONINGSSTRAAT PALEIS - RUE ROYALE (DEVANT N??14)/KONINKLIJKESTRAAT (N??14),50.843613,4.360628,TRUE,OPEN,Bruxelles-Capitale,20,9,11,2018-03-03T17:34:50+00:00
6,GARE CENTRALE/CENTRAAL STATION,GARE CENTRALE/CENTRAAL STATION - BLD DE L'IMPERATRICE/KEIZERINLAAN,50.845333,4.356475,FALSE,OPEN,Bruxelles-Capitale,40,22,16,2018-03-03T17:35:04+00:00
271,DUBOIS,DUBOIS - BD EMILE MACHTENS/LAAN 102-104,50.851158,4.309591,FALSE,OPEN,Bruxelles-Capitale,25,14,11,2018-03-03T17:34:42+00:00
176,COLONEL BOURG/KOLONEL BOURG,COLONEL BOURG/KOLONEL BOURG - RUE COLONEL BOURG/ KOLONEL BOURGSTRAAT 104,50.852356,4.408635,FALSE,OPEN,Bruxelles-Capitale,25,12,13,2018-03-03T17:39:16+00:00
239,DARWIN,DARWIN - AV. BRUGMANN / BRUGMANNLAAN 139-147,50.8187714,4.350961,TRUE,OPEN,Bruxelles-Capitale,25,14,9,2018-03-03T17:39:20+00:00
67,PARC CINQUANTENAIRE / JUBELPARK,PARC CINQUANTENAIRE/JUBELPARK - AVENUE D'AUDERGHEM/OUDERGEMSESTEENWEG 45,50.83975,4.385426,TRUE,OPEN,Bruxelles-Capitale,35,30,5,2018-03-03T17:38:45+00:00
357,AVIATION,AVIATION - INTERSECTION AVENUE DE L'AVIATION ET AVENUE ORBAN,50.834634,4.456746,FALSE,OPEN,Bruxelles-Capitale,20,4,16,2018-03-03T17:38:40+00:00
257,PL MARGHERITE D'AUTRICHE / MARGARETHA VAN OO,PLACE MARGHERITE D'AUTRICHE / MARGARETHA VAN OOSTENRIJKPLEIN,50.872169,4.298216,FALSE,OPEN,Bruxelles-Capitale,25,12,13,2018-03-03T17:39:10+00:00
179,CELTES/KELTEN,CELTES/KELTEN - AVENUE DE TERVUEREN (FACE AU 17) / TERVURENLAAN (TEGENOVER 17),50.839217,4.398015,TRUE,OPEN,Bruxelles-Capitale,44,28,9,2018-03-03T17:40:28+00:00
18,GUTENBERG / GUTENBERG,GUTENBERG - SQUARE GUTENBERG (FACE N?? 5)/GUTENBERGSSQUARE (TEGENOVER N?? 5),50.84771,4.377552,FALSE,OPEN,Bruxelles-Capitale,25,10,15,2018-03-03T17:40:02+00:00
359,JCDECAUX,JCDecaux - ALL?E VERTE 50 ? 1000 BRUXELLES,50.867708,4.357532,FALSE,OPEN,Bruxelles-Capitale,20,12,8,2018-03-03T17:40:06+00:00
332,VERGOTE,VERGOTE - BD BRAND WHITLOK,50.845229,4.404311,FALSE,OPEN,Bruxelles-Capitale,24,10,13,2018-03-03T17:40:33+00:00
92,LENOIR,LENOIR - BLD DE SMET DE NAEYER/DE SMET DE NAEYERLAAN 187 - 189,50.875826,4.329921,FALSE,OPEN,Bruxelles-Capitale,24,13,11,2018-03-03T17:39:42+00:00
181,LOUIS TITZ,LOUIS TITZ - AVENUE DE LA CHASSE/ JACHTLAAN 182 - 184,50.835723,4.394395,FALSE,OPEN,Bruxelles-Capitale,25,8,17,2018-03-03T17:39:48+00:00
353,BEAULIEU,BEAULIEU - RUE JULES COCKX / JULES COCKXSTRAAT,50.815681,4.40812,TRUE,OPEN,Bruxelles-Capitale,20,7,13,2018-03-03T17:40:31+00:00
111,ETANGS MELLAERTS VIJVERS,ETANGS MELLAERTS VIJVERS - BOULEVARD DU SOUVERAIN FACE / VORSTLAAN VOOR 275,50.827831,4.431822,FALSE,OPEN,Bruxelles-Capitale,25,11,14,2018-03-03T17:40:22+00:00
159,MASUI,MASUI - AVENUE DE LA REINE / KONINGINNELAAN 153,50.869297,4.36257,FALSE,OPEN,Bruxelles-Capitale,25,18,5,2018-03-03T17:40:32+00:00
127,GRAY/GRAY (D?MONT?E POUR TRAVAUX),D?MONT?E POUR TRAVAUX - GRAY  -  RUE DES DEUX PONTS (FACE 4)/ TWEEBRUGGENSTRAAT (TEGENOVER 4),50.832194,4.377694,FALSE,CLOSED,Bruxelles-Capitale,20,0,0,2018-02-15T21:39:44+00:00
296,GARE DE BOITSFORT,GARE DE BOITSFORT / BOSVOORDE STATION - CHEE DE LA HULPE DVT 187 / HULPSESTEENWEG 187,50.79528,4.40832,FALSE,OPEN,Bruxelles-Capitale,25,15,10,2018-03-03T17:30:37+00:00
209,VEEWEYDE / VEEWEIDE,VEEWEYDE / VEEWEIDE - BD THEO LAMBERT (FACE 5 a 9) / THEO LAMBERTLAAN (TEGENOVER ( tot 9),50.828602,4.299621,FALSE,OPEN,Bruxelles-Capitale,25,14,11,2018-03-03T17:31:28+00:00
270,DE PADUWA,DE PADUWA - AVENUE DES ANCIENS COMBATTANTS / OUD-STRIJDERSLAAN 1,50.859127,4.414406,FALSE,OPEN,Bruxelles-Capitale,25,13,12,2018-03-03T17:31:00+00:00
41,SAINT-ROCH/SINT-ROCHUS,SAINT ROCH/SINT-ROCHUS - CHAUSSEE D'ANVERS/ANTWERPSELAAN 37,50.859302,4.35485,FALSE,OPEN,Bruxelles-Capitale,24,16,7,2018-03-03T17:31:10+00:00
94,DUCHESSE DE BRABANT/HERTOGIN VAN BRABANT,DUCHESSE DE BRABANT/HERTOGIN VAN BRABANT - RUE DE BIRMINGHAM / BIRMINGHAMSTRAAT,50.849215,4.329184,FALSE,OPEN,Bruxelles-Capitale,20,12,8,2018-03-03T17:31:16+00:00
171,PISCINE LOUIS NAMECHE ZWEMBAD,PISCINE LOUIS NAMECHE ZWEMBAD - RUE CHARLES MALISSTRAAT / PARKING PISCINE / ZWEMBAD PARKING,50.854789,4.312201,FALSE,OPEN,Bruxelles-Capitale,25,16,8,2018-03-03T17:31:25+00:00
201,PETERBOS,PETERBOS - BD MARIA GROENINCKX DE MAY (FACE 26) / MARIA GROENINCKX DE MAYLAAN (TEGENOVER 26),50.842667,4.295939,TRUE,OPEN,Bruxelles-Capitale,25,16,9,2018-03-03T17:31:33+00:00
205,DE LINDE,DE LINDE - PLACE DE LINDE 22 / DE LINDEPLEIN 22,50.835503,4.299573,FALSE,OPEN,Bruxelles-Capitale,25,17,8,2018-03-03T17:31:06+00:00
286,BENS,BENS - CHEE D'ALSEMBERG DEVANT LE 548 / ALSEMBERSESTEENWEG VOOR 548,50.80814,4.336901,FALSE,OPEN,Bruxelles-Capitale,20,6,14,2018-03-03T17:31:18+00:00
304,ARAUCARIA,ARAUCARIA - AV DES CROIX DE FEU DEV 221C,50.893497,4.363297,FALSE,OPEN,Bruxelles-Capitale,25,20,5,2018-03-03T17:30:55+00:00
49,WILLEBROEK,WILLEBROECK/WILLEBROEK - QUAI DE WILLEBROECK/WILLEBROEKKAAI 22 BIS,50.8615,4.351143,FALSE,OPEN,Bruxelles-Capitale,25,18,7,2018-03-03T17:30:40+00:00
57,MADOU/MADOU,MADOU - RUE SCAILQUIN/SCAILQUINSTRAAT,50.849761,4.369356,TRUE,OPEN,Bruxelles-Capitale,23,16,7,2018-03-03T17:30:51+00:00
324,THOMAS BALIS,THOMAS BALIS - CHEE DE WAVRE 1395 ?? 1403 / WAVERSESTEENWEG 1395 TOT 1403,50.819641,4.412926,FALSE,OPEN,Bruxelles-Capitale,25,11,14,2018-03-03T17:36:10+00:00
63,JULES CESAR,JULES CESAR - AVENUE DE TERVUREN DEVANT / TERVURENLAAN VOOR 278,50.834705,4.421643,TRUE,OPEN,Bruxelles-Capitale,20,9,11,2018-03-03T17:35:38+00:00
136,PAVILLON/PAVILJOEN,PAVILLON/PAVILJOEN - PLACE PAVILLON /PAVILJOENPLAATS 92-94-96,50.869809,4.371808,FALSE,OPEN,Bruxelles-Capitale,24,10,13,2018-03-03T17:35:52+00:00
289,SQUARE GEORGES MARLOWSQUARE,SQUARE GEORGES MARLOWSQUARE - SQUARE MARLOW FACE 3-4-5 / MARLOWSQUARE VOOR 3-4-5,50.801594,4.340061,FALSE,OPEN,Bruxelles-Capitale,25,9,16,2018-03-03T17:35:43+00:00
325,HANKAR,HANKAR - CHEE DE WAVRE / WAVERSESTEENWEG 1208,50.821735,4.405622,TRUE,OPEN,Bruxelles-Capitale,25,22,3,2018-03-03T17:36:30+00:00
115,PETITE SUISSE/KLEIN ZWITSERLAND,PETITE SUISSE / KLEIN ZWITSERLAND - PLACE DE LA PETITE SUISSE (FACE 16-18) / KLEIN ZWITSERLANDPLEIN (TEGENOVER 16 - 18),50.817775,4.384971,FALSE,OPEN,Bruxelles-Capitale,24,19,5,2018-03-03T17:36:36+00:00
313,DEMEY,DEMEY - INTERSECTION BD INVALIDENLAAN / AV LOUIS DEHOUXLAAN,50.814958,4.416987,FALSE,OPEN,Bruxelles-Capitale,25,3,22,2018-03-03T17:35:32+00:00
56,ARCHIMEDE / ARCHIMEDES,ARCHIMEDE/ARCHIMEDES - RUE ARCHIMEDE/ARCHIMEDESSTRAAT 58-64,50.845817,4.383722,FALSE,OPEN,Bruxelles-Capitale,25,11,14,2018-03-03T17:35:07+00:00
229,ZAMAN FOREST NATIONAL/ZAMAN VORST NATIONAAL,ZAMAN FOREST NATIONAL/ZAMAN VORST NATIONAAL - AV VAN VOLXEM 2 / VAN VOLXEMLAAN 2,50.813587,4.324681,FALSE,OPEN,Bruxelles-Capitale,18,13,5,2018-03-03T17:34:51+00:00
284,CLAESSENS,CLAESSENS - RUE CLAESSENS FACE 7 / CLAESSENSSTRAAT VOOR 7,50.873085,4.35859,FALSE,OPEN,Bruxelles-Capitale,25,8,17,2018-03-03T17:34:40+00:00
280,HEYSEL / HEISEL,HEYSEL / HEISEL - AVENUE DE L'IMPERATRICE CHARLOTTE / KEIZERIN CHARLOTTELAAN,50.897522,4.334831,FALSE,OPEN,Bruxelles-Capitale,25,15,10,2018-03-03T17:33:28+00:00
81,PONT BOCKSTAEL/BRUG BOCKSTAEL,PONT BOCKSTAEL/BRUG BOCKSTAEL - BLD EMILE BOCKSTAEL/EMILE BOCKSTAELLAAN 5,50.870259,4.343195,FALSE,OPEN,Bruxelles-Capitale,25,12,13,2018-03-03T17:33:00+00:00
3,PORTE DE FLANDRE / VLAAMSEPOORT,PORTE DE FLANDRE/VLAAMSEPOORT - BLD DE NIEUPORT/NIEUWPOORTLAAN 1,50.853203,4.341823,FALSE,OPEN,Bruxelles-Capitale,20,14,5,2018-03-03T17:33:13+00:00
149,JULES LEBRUN,JULES LEBRUN - CHAUSSEE DE LOUVAIN (FACE 593) / LEUVENSE STEENWEG (TEGENOVER 593),50.856208,4.403386,FALSE,OPEN,Bruxelles-Capitale,25,10,15,2018-03-03T17:33:08+00:00
106,GERMOIR/MOUTERIJ,GERMOIR/MOUTERIJ - AVENUE DE LA COURONNE/KROONLAAN 92-94-96,50.830012,4.378625,TRUE,OPEN,Bruxelles-Capitale,25,20,5,2018-03-03T17:33:07+00:00
250,SAINTE-ELISABETH,SAINTE-ELISABETH - AV DE FRE CROISEMENT CH DE WATERLOO / DEFRELAAN - WATERLOOSESTEENWEG,50.80534,4.372123,FALSE,OPEN,Bruxelles-Capitale,25,20,5,2018-03-03T17:32:37+00:00
51,MIDI FONSNY/ZUID FONSNY,MIDI FONSNY/ZUID FONSNY - RUE D'ANGLETERRE / ENGELANDSTRAAT,50.835699,4.338826,FALSE,OPEN,Bruxelles-Capitale,25,7,18,2018-03-03T17:33:22+00:00
114,SAISONS/JAARGETIJDEN,SAISONS/JAARGETIJDEN  -  AVENUE DES SAISONS 2 / JAARGETIJDENLAAN 2,50.820391,4.385358,FALSE,OPEN,Bruxelles-Capitale,25,16,9,2018-03-03T17:34:31+00:00
342,MAISON COMMUNALE DE BERCHEM ST AGHATE,MAISON COMMUNALE DE BERCHEM ST AGHATE - AVENUE DU ROI ALBERT DVT 38,50.864761,4.294429,FALSE,OPEN,Bruxelles-Capitale,20,12,8,2018-03-03T17:33:41+00:00
292,RITTWEGER (FERM?E - TRAVAUX DE VOIRIE),FERM?E - TRAVAUX DE VOIRIE - RITTWEGER - RUE RITTWEGER 6-8 / RITTWEGERSTRAAT 6-8,50.797739,4.336083,FALSE,CLOSED,Bruxelles-Capitale,20,0,0,2018-03-03T17:34:19+00:00
285,COGHEN,COGHEN - AV COGHEN 1 A 5 / COGHENSTRAAT 1 TOT 5,50.813469,4.338951,FALSE,OPEN,Bruxelles-Capitale,25,13,11,2018-03-03T17:33:47+00:00
64,VETERINAIRES / VEEARTSEN,VETERINAIRES/VEEARTSEN - RUE DE FRANCE / FRANKRIJKSTRAAT,50.832749,4.331058,FALSE,OPEN,Bruxelles-Capitale,25,11,14,2018-03-03T17:34:02+00:00
4,JARDIN AUX FLEURS / BLOEMENHOF,JARDIN AUX FLEURS/BLOEMENHOF - PLACE DU JARDIN AUX FLEURS/BLOEMENHOFPLEIN - RUE DES 6 JETONS/ZES PENNIGENSTRAAT 71,50.847976,4.343696,FALSE,OPEN,Bruxelles-Capitale,20,13,7,2018-03-03T17:32:34+00:00
168,HOPITAL FRAN?AIS/FRANS HOSPITAAL,HOPITAL FRAN?AIS/FRANS HOSPITAAL - AVENUE JOS GOFFINLAAN 133-135,50.866379,4.303281,FALSE,OPEN,Bruxelles-Capitale,25,16,9,2018-03-03T17:32:31+00:00
13,LEMONNIER,LEMONNIER - BLD. MAURICE LEMONNIER/DE MAURICE LEMONNIERLAAN 202-204-206,50.840184,4.341324,FALSE,OPEN,Bruxelles-Capitale,25,3,22,2018-03-03T17:32:30+00:00
221,CURIE,CURIE - SQUARE MARIE CURIE (FACE 30) / MARIE CURIE SQUARE (TEGENOVER 30),50.821846,4.284394,FALSE,OPEN,Bruxelles-Capitale,25,10,15,2018-03-03T17:32:33+00:00
293,KEYM,KEYM - AVENUE DU COLVERT,50.810528,4.40231,FALSE,OPEN,Bruxelles-Capitale,25,20,5,2018-03-03T17:31:51+00:00
312,CENTRE CULTUREL / CULTUREEL CENTRUM,CENTRE CULTUREL / CULTUREEL CENTRUM - BD DU SOUVERAIN FACE 282 / VORSTLAAN VOOR 282,50.816948,4.426551,FALSE,OPEN,Bruxelles-Capitale,25,20,5,2018-03-03T17:32:15+00:00
54,TOUR ET TAXIS/THURN&TAXIS,TOUR ET TAXIS/THURN&TAXIS - RUE PICARD/ PICARDSTRAAT 3,50.863445,4.34635,FALSE,OPEN,Bruxelles-Capitale,25,18,7,2018-03-03T17:32:03+00:00
241,STATUAIRES/BEELDHOUWWERK,STATUAIRES/BEELDHOUWWERK - AVENUE DE FRE/DE FRELAAN 62,50.803917,4.349116,FALSE,OPEN,Bruxelles-Capitale,25,10,13,2018-03-03T17:36:38+00:00
323,CARENE,CARENE - AV LEON GROSJEAN 79,50.855186,4.415246,FALSE,OPEN,Bruxelles-Capitale,20,9,10,2018-03-03T17:37:17+00:00
130,ROND POINT DU SOUVERAIN,ROND POINT DU SOUVERAIN - BOULEVARD DU SOUVERAIN FACE / VORSTLAAN VOOR 207,50.820244,4.430081,FALSE,OPEN,Bruxelles-Capitale,23,10,13,2018-03-03T17:37:12+00:00
45,STEPHANIE/STEFANIA,STEPHANIE/STEFANIA - AV LOUISE/LOUIZALAAN 61A-63-65,50.83308,4.35743,FALSE,OPEN,Bruxelles-Capitale,25,16,9,2018-03-03T17:36:43+00:00
348,HANSEN-SOULIE,HANSEN-SOULIE - AVENUE HANSEN-SOULIE 42,50.831078,4.398546,FALSE,OPEN,Bruxelles-Capitale,24,14,10,2018-03-03T17:37:37+00:00
157,HELIOTROPES/HELIOTROPEN,HELIOTROPES/HELIOTROPEN - BOULEVARD LAMBERMONT /  LAMBERMONTLAAN 374,50.863388,4.386222,FALSE,OPEN,Bruxelles-Capitale,24,13,11,2018-03-03T17:36:57+00:00
319,ANCIENNE BARRIERE/OUDE AFSPANNING,ANCIENNE BARRIERE / OUDE AFSPANNINGSPLEIN - PLACE DE L'ANCIENNE BARRIERE FACE 10,50.885197,4.317648,FALSE,OPEN,Bruxelles-Capitale,20,9,11,2018-03-03T17:36:41+00:00
32,DANSAERT,DANSAERT - RUE ANTOINE DANSAERT/ANTOINE DANSAERTSTRAAT 60-62-64,50.850176,4.346384,FALSE,OPEN,Bruxelles-Capitale,35,7,28,2018-03-03T17:36:50+00:00
194,STUYVENBERG,AVENUE HOUBA DE STROOPER LAAN 30-32,50.885885,4.342003,FALSE,OPEN,Bruxelles-Capitale,25,13,11,2018-03-03T17:38:28+00:00
128,MUSEE DU TRAM,MUSEE DU TRAM - AVENUE DE TERVUREN / TERVURENLAAN,50.832355,4.432358,FALSE,OPEN,Bruxelles-Capitale,25,17,8,2018-03-03T17:38:14+00:00
268,DUNANT,DUNANT - AV HENRI DUNANT / HENRI DUNANTLAAN,50.862808,4.410791,FALSE,OPEN,Bruxelles-Capitale,20,4,16,2018-03-03T17:38:20+00:00
156,JAMBLINE DE MEUX/JAMBLINNE DE MEUX,JAMBLINE DE MEUX - PLACE JAMBLINNE DE MEUX / JAMBLINNE DE MEUXPLEIN 43 - 44 - 45,50.847158,4.393255,TRUE,OPEN,Bruxelles-Capitale,25,23,2,2018-03-03T17:38:24+00:00
303,VIEUX TILLEUL,VIEUX TILLEUL - AV DU BOIS DE LA CAMBRE FACE 113,50.807903,4.392756,FALSE,OPEN,Bruxelles-Capitale,25,17,8,2018-03-03T17:37:44+00:00
65,PARVIS DE ST GILLES,PARVIS DE ST GILLES/ST-GILLISVOORPLEIN - CHAUSSEE DE WATERLOO/ WATERLOOSESTEENWEG 65-69,50.829985,4.344557,FALSE,OPEN,Bruxelles-Capitale,25,14,7,2018-03-03T17:38:09+00:00
158,VAN YSENDIJCK,VAN YSENDIJCK - AVENUE VOLTAIRE (FACE 6) / VOLTAIRELAAN (TEGENOVER 6),50.867955,4.379577,FALSE,OPEN,Bruxelles-Capitale,24,14,10,2018-03-03T17:38:36+00:00
340,TOMBERG,AVENUE PAUL HYMANSLAAN,50.843617,4.425324,FALSE,OPEN,Bruxelles-Capitale,24,10,13,2018-03-03T17:38:28+00:00
46,ALBERTINE / ALBERTINA,ALBERTINE/ALBERTINA - BLD DE L'EMPEREUR/KEIZERSLAAN face/tegenover 2,50.843556,4.355006,FALSE,OPEN,Bruxelles-Capitale,24,10,13,2018-03-03T17:37:49+00:00
314,HERRMANN DEBROUX,HERRMANN DEBROUX - AV HERRMANN DEBROUXLAAN,50.812325,4.427962,FALSE,OPEN,Bruxelles-Capitale,30,18,12,2018-03-03T17:38:52+00:00
267,GENEVE,GENEVE - RUE DE GENEVE /  GENEVESTRAT 12,50.86171,4.403147,FALSE,OPEN,Bruxelles-Capitale,25,17,8,2018-03-03T17:38:49+00:00
272,SCHEUTBOS,SCHEUTBOS - BD METTEWIE/LAAN FACE/VOOR 419,50.850845,4.299659,FALSE,OPEN,Bruxelles-Capitale,25,10,15,2018-03-03T17:38:51+00:00
74,PLACE LOIX/LOIXPLEIN,PLACE LOIX/LOIXPLEIN - RUE BERCKMANS/ BERCKMANSSTRAAT 78 - 84,50.831936,4.353037,FALSE,OPEN,Bruxelles-Capitale,24,14,10,2018-03-03T17:38:57+00:00
196,PRINCE DE LIEGE / PRINS VAN LUIK,PRINCE DE LIEGE / PRINS VAN LUIK - CHEE DE NINOVE (FACE 629) / NINOOFSESTEENWEG (TEGENOVER 629),50.846874,4.29817,TRUE,OPEN,Bruxelles-Capitale,25,16,9,2018-03-03T17:39:06+00:00
231,KERSBEEK (FERM?E POUR MAINTENANCE),FERM?E POUR MAINTENANCE - KERSBEEK - AV KERSBEEK 107 / KERSBEEKLAAN 107,50.805801,4.3194,FALSE,CLOSED,Bruxelles-Capitale,19,0,0,2018-03-03T17:39:37+00:00
53,GARE DU MIDI / ZUIDSTATION,GARE DU MIDI / ZUIDSTATION - PLACE VICTOR HORTA / VICTOR HORTAPLEIN,50.837499,4.335947,FALSE,OPEN,Bruxelles-Capitale,40,7,32,2018-03-03T17:40:34+00:00
290,GARE DE CALEVOET / KALEVOET STATION,GARE DE CALEVOET / KALEVOET STATION - CHEE D'ALSEMBERG / ALSEMBERGSESTEENWEG 1006,50.79158,4.332669,FALSE,OPEN,Bruxelles-Capitale,24,9,15,2018-03-03T17:40:25+00:00
70,AURORE/DAGERAAD,AURORE/DAGERAAD - AVENUE LOUISE/LOUIZALAAN 440,50.818113,4.371446,TRUE,OPEN,Bruxelles-Capitale,25,8,17,2018-03-03T17:39:40+00:00
307,KAREL BOGAERT,KAREL BOGAERT - BD EMILE BOCKSTAEL / EMILE BOCKSTAELLAAN 307,50.881889,4.347448,FALSE,OPEN,Bruxelles-Capitale,20,5,15,2018-03-03T17:39:50+00:00
144,SAINTE-MARIE/SINTE-MARIA,SAINTE MARIE/SINTE-MARIA - RUE ROYALE/ KONINGSSTRAAT 257 - 259,50.85778,4.368144,FALSE,OPEN,Bruxelles-Capitale,25,10,15,2018-03-03T17:40:26+00:00
7,PARC / PARK,PARC/PARK - RUE ROYALE  (FACE N??66-68)/KONINGSSTRAAT (TEGENOVER N??66-68),50.846319,4.362244,TRUE,OPEN,Bruxelles-Capitale,25,17,8,2018-03-03T17:40:31+00:00
104,FERNAND COCQ,FERNAND COCQ - PLACE FERNAND COCQ (FACE AU 19-23) / FERNAND COCQPLEIN (TEGENOVER 19 - 23) (FERM?E),50.833304,4.366611,TRUE,OPEN,Bruxelles-Capitale,40,28,12,2018-03-03T17:39:38+00:00
343,VANDENDRIESCH,VANDENDRIESCH - RUE J-B VANDENDRIESCH 22-24,50.861788,4.292913,FALSE,OPEN,Bruxelles-Capitale,20,11,9,2018-03-03T17:40:36+00:00
75,GENERAL BARON/GENERAAL BARON,GENERAL BARON/GENERAAL BARON - AV DU PARC / PARKLAAN 51 - 55,50.825888,4.340388,FALSE,OPEN,Bruxelles-Capitale,25,25,0,2018-03-03T17:40:33+00:00
43,JOSEPH II / JOZEF II,JOSEPH II/JOZEF II - RUE JOSEPH II/JOZEF II-STRAAT,50.845256,4.374501,FALSE,OPEN,Bruxelles-Capitale,25,10,15,2018-03-03T17:39:50+00:00
108,FLAGEY,FLAGEY - PLACE FLAGEY (FACE 11)/EUGENE FLAGEYPLEIN (TEGENOVER 11),50.828012,4.371756,FALSE,OPEN,Bruxelles-Capitale,35,0,35,2018-03-03T17:39:54+00:00
309,SQUARE DU CENTENAIRE (FERM?E - TRAVAUX),FERM?E - TRAVAUX DE VOIRIE - SQUARE DU CENTENAIRE / EEUWFEESTSQUARE- SQUARE DU CENTENAIRE,50.87521,4.317954,FALSE,CLOSED,Bruxelles-Capitale,25,0,0,2018-02-15T21:39:45+00:00
331,GEORGES HENRI,GEORGES HENRI - AV GEORGES HENRI,50.842319,4.406295,FALSE,OPEN,Bruxelles-Capitale,20,9,11,2018-03-03T17:30:40+00:00
214,CAMPUS CERIA / CAMPUS VAN CERIA,CAMPUS CERIA / CAMPUS VAN CERIA - AV EMILE GRYSON (FACE 6 a 10) / EMILE GRYSONLAAN (TEGENOVER 6 tot 10),50.816002,4.295121,TRUE,OPEN,Bruxelles-Capitale,30,14,16,2018-03-03T17:31:24+00:00
140,AZALEES/AZALEA,AZALEES / AZALEA -   AVENUE PAUL DESCHANEL/LAAN FACE/TEGENOVER N??  6-8,50.862704,4.381289,FALSE,OPEN,Bruxelles-Capitale,25,14,11,2018-03-03T17:30:49+00:00
217,BIZET,BIZET - PLACE BIZET (face 11 a 19) / BIZETPLEIN (TEGENOVER 11 tot 19),50.824913,4.297248,FALSE,OPEN,Bruxelles-Capitale,23,9,14,2018-03-03T17:31:25+00:00
287,FLOREAL,FLOREAL - AV BRUGMANN 359 / BRUGMANNLAAN 359,50.809334,4.345243,FALSE,OPEN,Bruxelles-Capitale,23,7,15,2018-03-03T17:31:20+00:00
118,SCHWEITZER,SCHWEITZER - PLACE DOCTEUR SCHWEITZER,50.864622,4.297878,FALSE,OPEN,Bruxelles-Capitale,25,13,12,2018-03-03T17:30:51+00:00
71,LEGRAND,LEGRAND - AV LOUISE/LOUIZALAAN 525,50.815019,4.371982,TRUE,OPEN,Bruxelles-Capitale,22,6,16,2018-03-03T17:30:51+00:00
300,GARE DE BOONDAELSTATION,GARE DE BOONDAELSTATION - AV DE LA FORET 23 / VORSTLAAN 23,50.801434,4.392831,FALSE,OPEN,Bruxelles-Capitale,25,18,6,2018-03-03T17:31:30+00:00
37,POELAERT / POELAERT,POELAERT - PLACE POELAERT/POELAERTPLEIN 3,50.83795,4.353019,TRUE,OPEN,Bruxelles-Capitale,25,19,6,2018-03-03T17:30:33+00:00
44,CHARLEMAGNE / KAREL DE GROTE,CHARLEMAGNE/KAREL DE GROTE - RUE DE LA SCIENCE/WETENSCHAPSSTRAAT 11,50.841707,4.370986,FALSE,OPEN,Bruxelles-Capitale,25,6,19,2018-03-03T17:30:30+00:00
212,THEO LAMBERT,THEO LAMBERT - BD THEO LAMBERT (FACE 60) / THEO LAMBERT LAAN (TEGENOVER 60),50.827106,4.2925,FALSE,OPEN,Bruxelles-Capitale,25,8,17,2018-03-03T17:32:23+00:00
315,SACRE COEUR AUDERGHEM/HEILIGE HART OUDERGHEM,SACRE COEUR AUDERGHEM / HEILIGE HART OUDERGHEM - SQUARE DU SACREE C?UR / HEILIG-HARTSQUARE,50.810322,4.435789,FALSE,OPEN,Bruxelles-Capitale,20,17,3,2018-03-03T17:31:56+00:00
17,COMTE DE FLANDRE/GRAAF VAN VLAANDEREN,COMTE DE FLANDRE/GRAAF VAN VLAANDEREN - RUE SAINTE-MARIE / SINT-MARIASTRAAT,50.855358,4.339465,FALSE,OPEN,Bruxelles-Capitale,24,21,2,2018-03-03T17:31:49+00:00
208,MELBA,MELBA - AV NELLIE MELBA (FACE 1 a 9) / NELLIE MELBALAAN (TEGENOVER 1 tot 9),50.832565,4.294311,FALSE,OPEN,Bruxelles-Capitale,25,18,7,2018-03-03T17:32:18+00:00
77,PAUL JANSON,PAUL JANSON - CHAUSSEE DE CHARLEROI/ CHARLEROISESTEENWEG 159,50.827399,4.355281,TRUE,OPEN,Bruxelles-Capitale,25,15,9,2018-03-03T17:37:09+00:00
59,PLACE ST-JOSSE/ST JOOSTPLEIN,PLACE ST-JOSSE/ST-JOOSTPLEIN  -  RUE WILLEMS (FACE 5 - 11) / WILLEMSSTRAAT (TEGENOVER 5 - 11),50.849681,4.375312,FALSE,OPEN,Bruxelles-Capitale,24,4,20,2018-03-03T17:37:06+00:00
91,BELGICA,BELGICA - PLACE WERRIE/ WERRIEPLEIN 24,50.867773,4.335217,FALSE,OPEN,Bruxelles-Capitale,25,13,12,2018-03-03T17:36:43+00:00
352,ROUGE-CLO?TRE / ROOD-KLOOSTER,ROUGE-CLO?TRE - RUE DU ROUGE-CLO?TRE (PARKING CENTRE D'ART) / ROOD-KLOOSTERSTRAAT (PARKING KUNSTENCENTRUM),50.814264,4.443479,FALSE,OPEN,Bruxelles-Capitale,23,12,11,2018-03-03T17:37:17+00:00
195,WESTLAND SHOPPING,WESTLAND SHOPPING - BD SYLVAIN DUPUIS 265 / SYLVAIN DUPUIS LAAN 265,50.8377,4.288726,FALSE,OPEN,Bruxelles-Capitale,25,12,13,2018-03-03T17:37:04+00:00
185,PERE DE DEKEN/PATER DE DEKEN,PERE DE DEKEN/PATER DE DEKEN - RUE P?RE DE DEKEN/ PATER DE DEKENSTRAAT 40,50.835797,4.401599,FALSE,OPEN,Bruxelles-Capitale,25,11,14,2018-03-03T17:35:28+00:00
190,TERDELT,TERDELT - PLACE TERDELT / TERDELTPLEIN,50.867904,4.390696,FALSE,OPEN,Bruxelles-Capitale,22,7,15,2018-03-03T17:34:42+00:00
101,ZELLIK,ZELLIK - CHAUSSEE DE ZELLIK 4,50.869204,4.291663,FALSE,OPEN,Bruxelles-Capitale,25,4,21,2018-03-03T17:35:14+00:00
222,MERCKX,MERCKX - ROUTE DE LENNIK / LENNIKSEBAAN,50.817162,4.280012,FALSE,OPEN,Bruxelles-Capitale,25,6,19,2018-03-03T17:35:12+00:00
165,CIMETIERE DE JETTE / KERKHOF JETTE,CIMETIERE DE JETTE / KERKHOF JETTE - BLD DE SMET DE NAEYER (FACE AU 322)/ DE SMET DE NAEYERSTRAAT (TEGENOVER 322),50.879668,4.33425,FALSE,OPEN,Bruxelles-Capitale,23,12,11,2018-03-03T17:34:49+00:00
351,ULB,ULB - AV BUYL CROISEMENT AV DE L'UNIVERSITE (DEVANT L'ULB),50.813724,4.384205,TRUE,OPEN,Bruxelles-Capitale,25,10,14,2018-03-03T17:35:26+00:00
360,STOCKEL/STOKKEL,"STOCKEL/STOKKEL - AVENUE D'OPHEMLAAN, 1-3",50.84157,4.46577,FALSE,OPEN,Bruxelles-Capitale,25,18,7,2018-03-03T17:35:07+00:00
210,MARIUS RENARD,MARIUS RENARD - AV CHARLES DE TOLLENAERE (FACE 60) - CHARLES DE TOLLENAERELAAN (TEGENOVER 60),50.827873,4.288707,FALSE,OPEN,Bruxelles-Capitale,25,12,13,2018-03-03T17:35:35+00:00
10,CHAPELLE / KAPEL,CHAPELLE/KAPEL - PLACE DE LA CHAPELLE/KAPELLEPLEIN,50.841345,4.351729,FALSE,OPEN,Bruxelles-Capitale,20,11,8,2018-03-03T17:35:19+00:00
100,GARE DE LUXEMBOURG/LUXEMBURGSTATION,GARE DE LUXEMBOURG/LUXEMBURGSTATION - RUE DE TREVES / TRIERSTRAAT,50.838411,4.37302,TRUE,OPEN,Bruxelles-Capitale,44,20,24,2018-03-03T17:35:48+00:00
334,MARCEL THIRY,MARCEL THIRY - AV MARCEL THIRY FACE 23,50.855593,4.439625,FALSE,OPEN,Bruxelles-Capitale,20,8,12,2018-03-03T17:35:45+00:00
232,DOMAINE / DOMEIN,DOMAINE / DOMEIN - AV DU DOMAINE (FACE 150) / DOMEINELAAN (VOOR 150),50.810875,4.329158,FALSE,OPEN,Bruxelles-Capitale,25,15,10,2018-03-03T17:36:02+00:00
142,BIENFAITEURS/WELDOENERS,BIENFAITEURS/WELDOENERS - AVENUE ROGIER / ROGIERLAAN 269/271,50.857319,4.386724,FALSE,OPEN,Bruxelles-Capitale,24,13,11,2018-03-03T17:36:17+00:00
160,ELISA,ELISA - PLACE PRINCESSE ELISABETH / PRINSES ELISABETHPLEIN 8 - 19,50.877501,4.380315,FALSE,OPEN,Bruxelles-Capitale,23,8,15,2018-03-03T17:36:06+00:00
14,PORTE DE NAMUR / NAAMSEPOORT,PORTE DE NAMUR/NAAMSEPOORT - BLD DU REGENT /REGENTLAAN 1,50.839024,4.362168,TRUE,OPEN,Bruxelles-Capitale,23,14,9,2018-03-03T17:35:40+00:00
204,DUPUIS,DUPUIS - BD SYLVAIN DUPUIS / SYLVAIN DUPUISLAAN 209-211-213,50.837326,4.293932,FALSE,OPEN,Bruxelles-Capitale,25,19,6,2018-03-03T17:34:16+00:00
164,KENNIS,KENNIS - BOULEVARD LAMBERMONT (20 M APRES 284)/LAMBERMONTLAAN   (20 M NA N?? 284),50.867643,4.385817,FALSE,OPEN,Bruxelles-Capitale,25,7,18,2018-03-03T17:34:33+00:00
283,PISCINE / ZWEMBAD,PISCINE / ZWEMBAD - RUE DE LOMBARTZYDE / LOMBARDSIJDESTRAAT,50.893158,4.376931,FALSE,OPEN,Bruxelles-Capitale,14,9,5,2018-03-03T17:34:31+00:00
112,PAGE/EDELKNAAP,PAGE-EDELKNAAP  -  CHAUSSEE DE WATERLOO/  WATERLOOSE STEENWEG 440 - 442,50.821567,4.356508,TRUE,OPEN,Bruxelles-Capitale,18,18,0,2018-03-03T17:33:48+00:00
248,PRINCE DE LIGNE / PRINCE LIJN,PRINCE DE LIGNE / PRINCE LIJN - CHEE DE WATERLOO FACE 1170 / WATERLOOSESTEENWEG VOOR 1170,50.795704,4.373631,FALSE,OPEN,Bruxelles-Capitale,22,11,11,2018-03-03T17:33:41+00:00
364,DOCKS BRUXSEL,DOCKS BRUXSEL - AVENUE JULES VAN PRAETLAAN,50.880887,4.374248,FALSE,OPEN,Bruxelles-Capitale,20,11,9,2018-03-03T17:33:40+00:00
242,MAISON COMMUNALE D'UCCLE/UKKEL GEMEENTEHUIS,MAISON COMMUNALE D'UCCLE/UKKEL GEMEENTEHUIS - PLACE JEAN VANDER ELST / JEAN VANDER ELST PLEIN,50.803791,4.333321,FALSE,OPEN,Bruxelles-Capitale,25,15,10,2018-03-03T17:33:39+00:00
123,BASCULE,BASCULE -  CHAUSSEE DE VLEURGAT (DEVANT 215 - 217) / VLEURGATSESTEENWEG  (N?? 215 - 217),50.817507,4.366498,TRUE,OPEN,Bruxelles-Capitale,25,17,8,2018-03-03T17:32:40+00:00
170,RIGA,RIGA - SQUARE FRANCOIS RIGA / FRANCOIS RIGASQUARE,50.87453,4.385378,FALSE,OPEN,Bruxelles-Capitale,20,13,7,2018-03-03T17:33:30+00:00
202,AUMALE,AUMALE - RUE D'AUMALE / AUMALESTRAAT 339-341,50.839554,4.312311,FALSE,OPEN,Bruxelles-Capitale,25,12,13,2018-03-03T17:32:40+00:00
192,AUBERGE DE JEUNESSE,"AUBERGE DE JEUNESSE - RUE DELAUNOY/STRAAT ,67",50.851562,4.332924,FALSE,OPEN,Bruxelles-Capitale,25,9,16,2018-03-03T17:33:14+00:00
120,BLYCKAERTS,BLYCKAERTS - PLACE RAYMOND BLYCKAERTS/RAYMOND BLYCKAERTSPLEIN,50.832872,4.37483,TRUE,OPEN,Bruxelles-Capitale,25,21,4,2018-03-03T17:33:35+00:00
322,PARC DU ROI BAUDOUIN / BOUDEWIJNPARK,PARC DU ROI BAUDOUIN / BOUDEWIJNPARK - RUE JEAN BAPTISTE MOYENSSTRAAT 400,50.889523,4.315953,FALSE,OPEN,Bruxelles-Capitale,20,12,8,2018-03-03T17:37:59+00:00
347,ERASME,ERASME - ROUTE DE LENNIK N??808,50.81482,4.26534,FALSE,OPEN,Bruxelles-Capitale,25,11,14,2018-03-03T17:37:54+00:00
215,CUREGHEM / KUREGEM,CUREGHEM / KUREGEM - AV RAYMOND VANDER BRUGGEN / VANDEN BRUGGENLAAN,50.836864,4.317321,FALSE,OPEN,Bruxelles-Capitale,25,13,12,2018-03-03T17:38:19+00:00
175,BEEKANT,BEEKANT - BOULEVARD EDMOND MACHTENS / EDMOND MACHTENSLAAN,50.854166,4.322948,FALSE,OPEN,Bruxelles-Capitale,25,16,9,2018-03-03T17:37:39+00:00
338,UCL,"UCL - AVENUE E.MOUNIER,40",50.851073,4.452706,FALSE,OPEN,Bruxelles-Capitale,26,16,10,2018-03-03T17:38:14+00:00
132,DEUX CHAUSSEES,DEUX CHAUSSEES - CHEE DE TERVURENLAAN FACE/TEGENOVER 93A,50.816338,4.433895,FALSE,OPEN,Bruxelles-Capitale,19,10,8,2018-03-03T17:37:53+00:00
82,PANNENHUIS,PANNENHUIS - RUE CHARLES DEMEER/CHARLES DEMEERSTRAAT  71,50.873012,4.341687,FALSE,OPEN,Bruxelles-Capitale,20,13,7,2018-03-03T17:38:17+00:00
87,MIROIR/SPIEGEL,MIROIR/SPIEGEL - AVENUE DE LAEKEN (FACE 36) / LAKENSE LAAN (TEGENOVER 36),50.871391,4.323914,FALSE,OPEN,Bruxelles-Capitale,25,9,16,2018-03-03T17:38:50+00:00
50,RIBAUCOURT,RIBAUCOURT - BLD LEOPOLD II / LEOPOLD II-LAAN 121-123,50.860862,4.339182,FALSE,OPEN,Bruxelles-Capitale,25,6,19,2018-03-03T17:40:21+00:00
173,BICHON,BICHON - PLACE BICHON / BICHONPLEIN,50.864656,4.394448,FALSE,OPEN,Bruxelles-Capitale,24,8,16,2018-03-03T17:40:28+00:00
187,ARSENAL/ARSENAAL,ARSENAL/ARSENAAL - BOULEVARD LOUIS SCHMIDT/ LOUIS SCHMIDTLAAN 2,50.826603,4.397117,FALSE,OPEN,Bruxelles-Capitale,25,15,10,2018-03-03T17:40:11+00:00
206,SAINT-GUIDON / SINT GUIDO,SAINT GUIDON / SINT GUIDO - AV PAUL JANSON (FACE AU 34-28) / PAUL JANSONLAAN (TEGENOVER 34-28),50.834755,4.305962,FALSE,OPEN,Bruxelles-Capitale,25,14,10,2018-03-03T17:40:33+00:00
